IRIDIUM 112             
1 41925U 17003J   25336.24678084  .00000279  00000+0  92691-4 0  9998
2 41925  86.3986 170.5944 0001980  82.7648 277.3773 14.34217953465040
IRIDIUM 111             
1 41926U 17003K   25336.09456605  .00000117  00000+0  34759-4 0  9997
2 41926  86.3990 170.7241 0001901  89.3254 270.8159 14.34218981465001
IRIDIUM 113             
1 42803U 17039A   25336.28383263  .00000069  00000+0  17540-4 0  9996
2 42803  86.3984  44.4658 0001978  93.2625 266.8797 14.34217968442965
IRIDIUM 123             
1 42804U 17039B   25336.25554311 -.00000186  00000+0 -73338-4 0  9997
2 42804  86.3963  75.9620 0001714 104.2537 255.8850 14.34217380441723
IRIDIUM 120             
1 42805U 17039C   25336.27749145  .00000000  00000+0 -69243-5 0  9996
2 42805  86.3968  44.2763 0002233 104.2480 255.8965 14.34219082442954
IRIDIUM 115             
1 42806U 17039D   25336.14964569  .00000347  00000+0  97240-4 0  9992
2 42806  86.4509  44.4316 0002069 111.3211 248.8211 14.43287842445847
IRIDIUM 118             
1 42807U 17039E   25336.00818805  .00000346  00000+0  11658-3 0  9996
2 42807  86.3967  76.0643 0001921  93.2509 266.8907 14.34222465441683
IRIDIUM 117             
1 42808U 17039F   25336.23651579 -.00000186  00000+0 -73636-4 0  9994
2 42808  86.3963  75.9283 0001758  99.9166 260.2228 14.34217183441740
